{
  "type": "FeatureCollection",
  "features": [
    {
      "type": "Feature",
      "properties": {
        "norad_id": 41877,
        "name": "RESOURCESAT-2A",
        "group": "resource",
        "lat": -50.93657379862053,
        "lon": 59.329729665336615,
        "alt_km": 826.0313804408015,
        "timestamp": "2025-12-04T10:51:49.763515+00:00",
        "meta_object_name": "RESOURCESAT-2A",
        "meta_object_id": "2016-074A",
        "meta_epoch": "2025-12-04T04:21:00.527904",
        "meta_mean_motion": 14.21593978,
        "meta_eccentricity": 0.0001161,
        "meta_inclination": 98.7767,
        "meta_ra_of_asc_node": 48.0868,
        "meta_arg_of_pericenter": 297.5914,
        "meta_mean_anomaly": 62.5145,
        "meta_ephemeris_type": 0,
        "meta_classification_type": "U",
        "meta_norad_cat_id": 41877,
        "meta_element_set_no": 999,
        "meta_rev_at_epoch": 46659,
        "meta_bstar": 0.00018121,
        "meta_mean_motion_dot": 3.53e-06,
        "meta_mean_motion_ddot": 0,
        "tle_line1": "1 41877U 16074A   25338.18125611  .00000353  00000+0  18121-3 0  9997",
        "tle_line2": "2 41877  98.7767  48.0868 0001161 297.5914  62.5145 14.21593978466595"
      },
      "geometry": {
        "type": "Point",
        "coordinates": [
          59.329729665336615,
          -50.93657379862053
        ]
      }
    },
    {
      "type": "Feature",
      "properties": {
        "norad_id": 41948,
        "name": "CARTOSAT-2D",
        "group": "resource",
        "lat": -70.53623493513139,
        "lon": 57.77741234387386,
        "alt_km": 515.2619001676112,
        "timestamp": "2025-12-04T10:51:49.763526+00:00",
        "meta_object_name": "CARTOSAT-2D",
        "meta_object_id": "2017-008A",
        "meta_epoch": "2025-12-04T06:26:18.528864",
        "meta_mean_motion": 15.1936309,
        "meta_eccentricity": 0.0004942,
        "meta_inclination": 97.44,
        "meta_ra_of_asc_node": 35.8945,
        "meta_arg_of_pericenter": 195.4876,
        "meta_mean_anomaly": 164.6208,
        "meta_ephemeris_type": 0,
        "meta_classification_type": "U",
        "meta_norad_cat_id": 41948,
        "meta_element_set_no": 999,
        "meta_rev_at_epoch": 48798,
        "meta_bstar": 3.1789e-06,
        "meta_mean_motion_dot": 0,
        "meta_mean_motion_ddot": 0,
        "tle_line1": "1 41948U 17008A   25338.26827001  .00000000  00000+0  31789-5 0  9991",
        "tle_line2": "2 41948  97.4400  35.8945 0004942 195.4876 164.6208 15.19363090487985"
      },
      "geometry": {
        "type": "Point",
        "coordinates": [
          57.77741234387386,
          -70.53623493513139
        ]
      }
    },
    {
      "type": "Feature",
      "properties": {
        "norad_id": 42063,
        "name": "SENTINEL-2B",
        "group": "resource",
        "lat": 2.2540475284545347,
        "lon": 50.67453793453194,
        "alt_km": 791.723880236369,
        "timestamp": "2025-12-04T10:51:49.763536+00:00",
        "meta_object_name": "SENTINEL-2B",
        "meta_object_id": "2017-013A",
        "meta_epoch": "2025-12-04T04:08:23.568000",
        "meta_mean_motion": 14.30810834,
        "meta_eccentricity": 0.0001118,
        "meta_inclination": 98.5726,
        "meta_ra_of_asc_node": 50.7385,
        "meta_arg_of_pericenter": 98.1059,
        "meta_mean_anomaly": 262.0251,
        "meta_ephemeris_type": 0,
        "meta_classification_type": "U",
        "meta_norad_cat_id": 42063,
        "meta_element_set_no": 999,
        "meta_rev_at_epoch": 45675,
        "meta_bstar": 0.00014468,
        "meta_mean_motion_dot": 3.36e-06,
        "meta_mean_motion_ddot": 0,
        "tle_line1": "1 42063U 17013A   25338.17249500  .00000336  00000+0  14468-3 0  9993",
        "tle_line2": "2 42063  98.5726  50.7385 0001118  98.1059 262.0251 14.30810834456752"
      },
      "geometry": {
        "type": "Point",
        "coordinates": [
          50.67453793453194,
          2.2540475284545347
        ]
      }
    },
    {
      "type": "Feature",
      "properties": {
        "norad_id": 42767,
        "name": "CARTOSAT-2E",
        "group": "resource",
        "lat": -17.437415855937267,
        "lon": -146.21044609411538,
        "alt_km": 513.1575676232442,
        "timestamp": "2025-12-04T10:51:49.763546+00:00",
        "meta_object_name": "CARTOSAT-2E",
        "meta_object_id": "2017-036C",
        "meta_epoch": "2025-12-04T03:40:25.781952",
        "meta_mean_motion": 15.19184702,
        "meta_eccentricity": 0.0002295,
        "meta_inclination": 97.4574,
        "meta_ra_of_asc_node": 35.8518,
        "meta_arg_of_pericenter": 282.3699,
        "meta_mean_anomaly": 77.7278,
        "meta_ephemeris_type": 0,
        "meta_classification_type": "U",
        "meta_norad_cat_id": 42767,
        "meta_element_set_no": 999,
        "meta_rev_at_epoch": 46853,
        "meta_bstar": 0.0005057,
        "meta_mean_motion_dot": 0.00010578,
        "meta_mean_motion_ddot": 0,
        "tle_line1": "1 42767U 17036C   25338.15307618  .00010578  00000+0  50570-3 0  9995",
        "tle_line2": "2 42767  97.4574  35.8518 0002295 282.3699  77.7278 15.19184702468533"
      },
      "geometry": {
        "type": "Point",
        "coordinates": [
          -146.21044609411538,
          -17.437415855937267
        ]
      }
    },
    {
      "type": "Feature",
      "properties": {
        "norad_id": 42920,
        "name": "FORMOSAT-5",
        "group": "resource",
        "lat": 55.74816294367647,
        "lon": -114.76747916497052,
        "alt_km": 723.9151739875433,
        "timestamp": "2025-12-04T10:51:49.763556+00:00",
        "meta_object_name": "FORMOSAT-5",
        "meta_object_id": "2017-049A",
        "meta_epoch": "2025-12-04T03:40:38.523360",
        "meta_mean_motion": 14.50997416,
        "meta_eccentricity": 0.0010271,
        "meta_inclination": 98.2462,
        "meta_ra_of_asc_node": 52.6422,
        "meta_arg_of_pericenter": 324.2732,
        "meta_mean_anomaly": 35.7775,
        "meta_ephemeris_type": 0,
        "meta_classification_type": "U",
        "meta_norad_cat_id": 42920,
        "meta_element_set_no": 999,
        "meta_rev_at_epoch": 43839,
        "meta_bstar": 0.00014429,
        "meta_mean_motion_dot": 5.27e-06,
        "meta_mean_motion_ddot": 0,
        "tle_line1": "1 42920U 17049A   25338.15322365  .00000527  00000+0  14429-3 0  9992",
        "tle_line2": "2 42920  98.2462  52.6422 0010271 324.2732  35.7775 14.50997416438392"
      },
      "geometry": {
        "type": "Point",
        "coordinates": [
          -114.76747916497052,
          55.74816294367647
        ]
      }
    },
    {
      "type": "Feature",
      "properties": {
        "norad_id": 42969,
        "name": "SENTINEL-5P",
        "group": "resource",
        "lat": 16.148810510696308,
        "lon": -85.45340549087571,
        "alt_km": 827.3314973978331,
        "timestamp": "2025-12-04T10:51:49.763567+00:00",
        "meta_object_name": "SENTINEL-5P",
        "meta_object_id": "2017-064A",
        "meta_epoch": "2025-12-03T19:33:43.278336",
        "meta_mean_motion": 14.19513918,
        "meta_eccentricity": 9.43e-05,
        "meta_inclination": 98.777,
        "meta_ra_of_asc_node": 276.4789,
        "meta_arg_of_pericenter": 85.8301,
        "meta_mean_anomaly": 274.2983,
        "meta_ephemeris_type": 0,
        "meta_classification_type": "U",
        "meta_norad_cat_id": 42969,
        "meta_element_set_no": 999,
        "meta_rev_at_epoch": 42184,
        "meta_bstar": 9.9162e-05,
        "meta_mean_motion_dot": 1.65e-06,
        "meta_mean_motion_ddot": 0,
        "tle_line1": "1 42969U 17064A   25337.81508424  .00000165  00000+0  99162-4 0  9992",
        "tle_line2": "2 42969  98.7770 276.4789 0000943  85.8301 274.2983 14.19513918421840"
      },
      "geometry": {
        "type": "Point",
        "coordinates": [
          -85.45340549087571,
          16.148810510696308
        ]
      }
    },
    {
      "type": "Feature",
      "properties": {
        "norad_id": 42987,
        "name": "SKYSAT-C11",
        "group": "resource",
        "lat": -70.99936531565504,
        "lon": 137.9626238295471,
        "alt_km": 433.68986918432256,
        "timestamp": "2025-12-04T10:51:49.763577+00:00",
        "meta_object_name": "SKYSAT-C11",
        "meta_object_id": "2017-068A",
        "meta_epoch": "2025-12-04T03:24:51.257088",
        "meta_mean_motion": 15.46899554,
        "meta_eccentricity": 9.49e-05,
        "meta_inclination": 97.4138,
        "meta_ra_of_asc_node": 115.4252,
        "meta_arg_of_pericenter": 111.8908,
        "meta_mean_anomaly": 248.2442,
        "meta_ephemeris_type": 0,
        "meta_classification_type": "U",
        "meta_norad_cat_id": 42987,
        "meta_element_set_no": 999,
        "meta_rev_at_epoch": 45298,
        "meta_bstar": 0.00080686,
        "meta_mean_motion_dot": 0.00040655,
        "meta_mean_motion_ddot": 0,
        "tle_line1": "1 42987U 17068A   25338.14225992  .00040655  00000+0  80686-3 0  9997",
        "tle_line2": "2 42987  97.4138 115.4252 0000949 111.8908 248.2442 15.46899554452984"
      },
      "geometry": {
        "type": "Point",
        "coordinates": [
          137.9626238295471,
          -70.99936531565504
        ]
      }
    }
  ]
}